OBJECT_NAME,OBJECT_ID,EPOCH,MEAN_MOTION,ECCENTRICITY,INCLINATION,RA_OF_ASC_NODE,ARG_OF_PERICENTER,MEAN_ANOMALY,EPHEMERIS_TYPE,CLASSIFICATION_TYPE,NORAD_CAT_ID,ELEMENT_SET_NO,REV_AT_EPOCH,BSTAR,MEAN_MOTION_DOT,MEAN_MOTION_DDOT
TANSAT,2016-081A,2026-06-18T23:05:06.401760,14.59951737,.00194609,98.5360,170.2722,306.4512,53.4893,0,U,41898,999,50488,.22321775E-4,.56E-6,0
JILIN-1 03,2017-002B,2026-06-18T23:21:21.408480,15.41612185,.00070084,97.1946,177.0325,149.1559,211.0101,0,U,41914,999,52213,.25695044E-3,.1074E-3,0
CARTOSAT-2D,2017-008A,2026-06-19T00:03:50.066784,15.19216070,.00038646,97.4103,229.2748,226.2168,133.8747,0,U,41948,999,51785,.11421524E-3,.2337E-4,0
CARTOSAT-2E,2017-036C,2026-06-18T22:54:37.038240,15.19265261,.00022915,97.4271,229.7281,312.0672,48.0367,0,U,42767,999,49841,.13731206E-3,.2827E-4,0
IRIDIUM 113,2017-039A,2026-06-18T21:57:19.191744,14.34217646,.00021574,86.3967,321.4565,89.1851,270.9592,0,U,42803,999,47143,-.9997E-6,.17E-6,0
NORSAT 2,2017-042D,2026-06-18T22:25:27.687072,15.21955035,.00103748,97.4041,343.3466,51.8779,308.3391,0,U,42828,999,48800,.34064688E-3,.7711E-4,0
TECHNOSAT,2017-042E,2026-06-18T21:52:32.096640,15.04971443,.00190763,97.4294,327.5032,88.8096,271.5316,0,U,42829,999,48696,.20538398E-3,.2864E-4,0
FLYING LAPTOP,2017-042G,2026-06-18T23:38:47.917248,15.01155403,.00196162,97.4695,325.4483,115.7715,244.5537,0,U,42831,999,48672,.21529098E-3,.2712E-4,0
WNISAT 1R,2017-042L,2026-06-18T21:22:56.441856,15.01768544,.00113697,97.4841,325.9520,141.8600,218.3431,0,U,42835,999,48676,.13830573E-3,.1746E-4,0
LEMUR-2-GREENBERG,2017-042N,2026-06-18T11:01:19.276032,15.31359663,.0008395,97.3821,350.0774,9.3280,350.8115,0,U,42837,999,48858,.42899E-3,.12937E-3,0
LEMUR-2-FURIAUS,2017-042R,2026-06-18T10:53:40.308000,15.30285769,.0008108,97.3770,348.0240,65.3345,294.8739,0,U,42840,999,48840,.47784E-3,.13947E-3,0
CORVUS BC2,2017-042X,2026-06-18T22:07:43.527648,15.06307766,.00144811,97.4074,331.2038,105.0492,255.2340,0,U,42846,999,48732,.21041319E-3,.3039E-4,0
CORVUS BC1,2017-042Y,2026-06-18T21:59:40.792704,15.06476405,.00134705,97.4108,332.0139,84.0465,276.2298,0,U,42847,999,48735,.18322332E-3,.265E-4,0
VRSS-2,2017-060A,2026-06-18T22:38:40.406208,14.81198144,.00186771,97.6505,207.5915,93.6198,266.7152,0,U,42954,999,46871,.13156615E-3,.977E-5,0
MOHAMMED VI-A,2017-070A,2026-06-18T23:19:59.933280,14.77072010,.00013322,97.9558,242.2789,73.1056,287.0300,0,U,43005,999,46424,.11444797E-3,.757E-5,0
FENGYUN 3D,2017-072A,2026-06-18T23:30:46.399680,14.19740447,.00024949,99.0129,144.4349,60.6130,299.5294,0,U,43010,999,44524,.14225052E-3,.255E-5,0
NOAA 20 (JPSS-1),2017-073A,2026-06-18T21:42:25.892640,14.19511964,.00003241,98.7770,109.3518,111.0718,249.0493,0,U,43013,999,44471,.33289405E-4,.26E-6,0
MAKERSAT 0,2017-073D,2026-06-18T22:38:23.758656,15.32145298,.01050123,97.4613,52.4756,266.6189,92.3036,0,U,43016,999,46673,.36589247E-3,.13439E-3,0
RADFXSAT (FOX-1B),2017-073E,2026-06-17T14:31:00.659136,15.12722439,.0149538,97.4696,35.8108,327.7970,31.4193,0,U,43017,999,46545,.24962E-3,.5679E-4,0
JILIN-1 04,2017-074A,2026-06-18T21:39:52.243200,15.42476703,.00043048,97.4862,279.5608,172.8310,187.2999,0,U,43022,999,47453,.24216352E-3,.10403E-3,0
JILIN-1 05,2017-074B,2026-06-18T22:44:49.377408,15.33898778,.00045267,97.4868,276.1256,207.2272,152.8734,0,U,43023,999,47427,.20454069E-3,.6627E-4,0
JILIN-1 06,2017-074C,2026-06-18T22:04:12.629568,15.33709118,.00058276,97.4794,273.1047,223.4426,136.6358,0,U,43024,999,47410,.15233317E-3,.4885E-4,0
IRIDIUM 116,2017-083C,2026-06-18T19:40:19.140672,14.34217458,.00018977,86.3960,321.3187,100.0470,260.0941,0,U,43072,999,44440,-.10517469E-4,-.1E-6,0
IRIDIUM 130,2017-083D,2026-06-18T22:15:34.774848,14.34219446,.00019444,86.3974,321.5489,93.3023,266.8395,0,U,43073,999,44436,.50560654E-4,.161E-5,0
LKW-2,2017-084A,2026-06-18T23:53:09.579264,15.26357304,.00013357,97.1185,209.7066,172.2085,187.9175,0,U,43080,999,47196,.17761136E-3,.4547E-4,0
SUPERVIEW-1 03,2018-002A,2026-06-18T23:39:50.629824,15.39306172,.00473019,97.3132,254.8207,173.1074,187.0833,0,U,43099,999,46864,.33786806E-3,.13622E-3,0
CARTOSAT-2F,2018-004A,2026-06-18T22:06:10.462752,15.19221304,.00008389,97.4781,229.5391,197.8814,162.2391,0,U,43111,999,46759,.77493459E-4,.1563E-4,0
LKW-3,2018-006A,2026-06-18T22:39:21.244032,15.35279516,.00020012,97.6614,330.5859,316.5307,43.5778,0,U,43146,999,46898,.28819914E-3,.979E-4,0
