TANSAT                  
1 41898U 16081A   26169.96187965  .00000056  00000+0  22322-4 0  9996
2 41898  98.5360 170.2722 0019460 306.4512  53.4893 14.59951737504883
JILIN-1 03              
1 41914U 17002B   26169.97316445  .00010740  00000+0  25695-3 0  9993
2 41914  97.1946 177.0325 0007008 149.1559 211.0101 15.41612185522134
CARTOSAT-2D             
1 41948U 17008A   26170.00266281  .00002337  00000+0  11422-3 0  9990
2 41948  97.4103 229.2748 0003864 226.2168 133.8747 15.19216070517855
CARTOSAT-2E             
1 42767U 17036C   26169.95459535  .00002827  00000+0  13731-3 0  9998
2 42767  97.4271 229.7281 0002291 312.0672  48.0367 15.19265261498416
IRIDIUM 113             
1 42803U 17039A   26169.91480546  .00000017  00000+0 -99970-6 0  9996
2 42803  86.3967 321.4565 0002157  89.1851 270.9592 14.34217646471432
NORSAT 2                
1 42828U 17042D   26169.93434823  .00007711  00000+0  34065-3 0  9994
2 42828  97.4041 343.3466 0010374  51.8779 308.3391 15.21955035488005
TECHNOSAT               
1 42829U 17042E   26169.91148260  .00002864  00000+0  20538-3 0  9994
2 42829  97.4294 327.5032 0019076  88.8096 271.5316 15.04971443486962
FLYING LAPTOP           
1 42831U 17042G   26169.98527682  .00002712  00000+0  21529-3 0  9996
2 42831  97.4695 325.4483 0019616 115.7715 244.5537 15.01155403486721
WNISAT 1R               
1 42835U 17042L   26169.89093104  .00001746  00000+0  13831-3 0  9990
2 42835  97.4841 325.9520 0011369 141.8600 218.3431 15.01768544486767
LEMUR-2-GREENBERG       
1 42837U 17042N   26169.45925088  .00012937  00000+0  42899-3 0  9999
2 42837  97.3821 350.0774 0008395   9.3280 350.8115 15.31359663488587
LEMUR-2-FURIAUS         
1 42840U 17042R   26169.45393875  .00013947  00000+0  47784-3 0  9996
2 42840  97.3770 348.0240 0008108  65.3345 294.8739 15.30285769488409
CORVUS BC2              
1 42846U 17042X   26169.92203157  .00003039  00000+0  21041-3 0  9996
2 42846  97.4074 331.2038 0014481 105.0492 255.2340 15.06307766487322
CORVUS BC1              
1 42847U 17042Y   26169.91644436  .00002650  00000+0  18322-3 0  9991
2 42847  97.4108 332.0139 0013470  84.0465 276.2298 15.06476405487350
VRSS-2                  
1 42954U 17060A   26169.94352322  .00000977  00000+0  13157-3 0  9994
2 42954  97.6505 207.5915 0018677  93.6198 266.7152 14.81198144468718
MOHAMMED VI-A           
1 43005U 17070A   26169.97222145  .00000757  00000+0  11445-3 0  9999
2 43005  97.9558 242.2789 0001332  73.1056 287.0300 14.77072010464241
FENGYUN 3D              
1 43010U 17072A   26169.97970370  .00000255  00000+0  14225-3 0  9999
2 43010  99.0129 144.4349 0002494  60.6130 299.5294 14.19740447445244
NOAA 20 (JPSS-1)        
1 43013U 17073A   26169.90446635  .00000026  00000+0  33289-4 0  9996
2 43013  98.7770 109.3518 0000324 111.0718 249.0493 14.19511964444718
MAKERSAT 0              
1 43016U 17073D   26169.94333054  .00013439  00000+0  36589-3 0  9990
2 43016  97.4613  52.4756 0105012 266.6189  92.3036 15.32145298466731
RADFXSAT (FOX-1B)       
1 43017U 17073E   26168.60486874  .00005679  00000+0  24962-3 0  9991
2 43017  97.4696  35.8108 0149538 327.7970  31.4193 15.12722439465459
JILIN-1 04              
1 43022U 17074A   26169.90268800  .00010403  00000+0  24216-3 0  9992
2 43022  97.4862 279.5608 0004304 172.8310 187.2999 15.42476703474536
JILIN-1 05              
1 43023U 17074B   26169.94779372  .00006627  00000+0  20454-3 0  9991
2 43023  97.4868 276.1256 0004526 207.2272 152.8734 15.33898778474277
JILIN-1 06              
1 43024U 17074C   26169.91959062  .00004885  00000+0  15233-3 0  9998
2 43024  97.4794 273.1047 0005827 223.4426 136.6358 15.33709118474100
IRIDIUM 116             
1 43072U 17083C   26169.81966598 -.00000010  00000+0 -10517-4 0  9991
2 43072  86.3960 321.3187 0001897 100.0470 260.0941 14.34217458444409
IRIDIUM 130             
1 43073U 17083D   26169.92748582  .00000161  00000+0  50561-4 0  9993
2 43073  86.3974 321.5489 0001944  93.3023 266.8395 14.34219446444364
LKW-2                   
1 43080U 17084A   26169.99524976  .00004547  00000+0  17761-3 0  9994
2 43080  97.1185 209.7066 0001335 172.2085 187.9175 15.26357304471966
SUPERVIEW-1 03          
1 43099U 18002A   26169.98600266  .00013622  00000+0  33787-3 0  9991
2 43099  97.3132 254.8207 0047301 173.1074 187.0833 15.39306172468643
CARTOSAT-2F             
1 43111U 18004A   26169.92095443  .00001563  00000+0  77493-4 0  9991
2 43111  97.4781 229.5391 0000838 197.8814 162.2391 15.19221304467599
LKW-3                   
1 43146U 18006A   26169.94399588  .00009790  00000+0  28820-3 0  9999
2 43146  97.6614 330.5859 0002001 316.5307  43.5778 15.35279516468987
